QIANFAN-25              
1 61558U 24185G   25351.84719830  .00000297  00000+0  17318-3 0  9991
2 61558  88.9807  77.6132 0007440 302.4974  57.5489 14.05912723 70220
QIANFAN-26              
1 61559U 24185H   25351.83219670  .00000158  00000+0  14476-3 0  9996
2 61559  88.9813  79.2026 0005378  16.8824 343.2521 13.77814715 69372
QIANFAN-27              
1 61560U 24185J   25351.86623023  .00000524  00000+0  20811-3 0  9999
2 61560  88.9806  76.3440 0005595 270.4604  89.5949 14.27339836 70894
QIANFAN-28              
1 61561U 24185K   25351.84588841  .00000779  00000+0  30793-3 0  9998
2 61561  88.9824  76.3500 0005043 268.6020  91.4596 14.28045734 70905
QIANFAN-29              
1 61562U 24185L   25351.84936308  .00000165  00000+0  23606-3 0  9998
2 61562  88.9790  80.7840 0010807  45.9247 314.2792 13.51013376 68481
QIANFAN-30              
1 61563U 24185M   25351.82807050  .00000060  00000+0  75582-4 0  9993
2 61563  88.9811  80.3136 0008017  35.7695 324.3992 13.49988987 68754
QIANFAN-31              
1 61564U 24185N   25351.84030919  .00000195  00000+0  25291-3 0  9998
2 61564  88.9794  80.1063 0007208  31.2323 328.9259 13.57968015 68858
QIANFAN-32              
1 61565U 24185P   25351.86779289  .00000073  00000+0  94957-4 0  9992
2 61565  88.9853  80.4452 0010581  57.1464 303.0704 13.50736310 68731
